OBJECT_NAME,OBJECT_ID,EPOCH,MEAN_MOTION,ECCENTRICITY,INCLINATION,RA_OF_ASC_NODE,ARG_OF_PERICENTER,MEAN_ANOMALY,EPHEMERIS_TYPE,CLASSIFICATION_TYPE,NORAD_CAT_ID,ELEMENT_SET_NO,REV_AT_EPOCH,BSTAR,MEAN_MOTION_DOT,MEAN_MOTION_DDOT
KUIPER-00606,2026-118Y,2026-06-09T12:31:54.280992,15.37624796,.00046916,51.8696,90.3112,125.2307,234.9120,0,U,69289,999,280,.65488218E-3,.24258E-3,0
KUIPER-00607,2026-118Z,2026-06-09T12:35:04.117344,15.37312854,.00063498,51.8681,90.3266,131.3967,228.7566,0,U,69290,999,280,.74846766E-3,.27517E-3,0
KUIPER-00608,2026-118AA,2026-06-09T12:45:09.402048,15.35777998,.00095105,51.8605,90.3717,148.3941,211.7618,0,U,69291,999,280,-.15889426E-3,-.6009E-4,0
KUIPER-00610,2026-118AB,2026-06-09T09:19:32.510208,15.38166630,.00029469,51.8717,90.9125,109.1000,251.0306,0,U,69292,999,278,.54078985E-3,.20308E-3,0
KUIPER-00613,2026-118AC,2026-06-09T12:49:17.841792,15.35286086,.0010368,51.8629,90.3908,158.7039,201.4380,0,U,69293,999,280,.28468598E-3,.9545E-4,0
KUIPER-00618,2026-118AD,2026-06-09T12:22:52.425120,15.38425877,.00019239,51.8716,90.2654,73.1056,287.0142,0,U,69294,999,280,.63378163E-3,.24084E-3,0
KUIPER-00620,2026-118AE,2026-06-09T12:25:48.895392,15.38253086,.00030985,51.8712,90.2807,97.2980,262.8359,0,U,69295,999,280,.83148118E-3,.31574E-3,0
STARLINK-37501,2026-119A,2026-06-09T14:00:04.000032,15.79958641,.00011847,97.2844,185.9855,96.4646,97.4096,0,U,69296,999,266,-.11191876E-3,-.20708E-3,0
STARLINK-37496,2026-119B,2026-06-09T14:00:04.000032,15.79956097,.00009647,97.2846,185.9844,102.0812,89.0848,0,U,69297,999,266,.7312529E-5,.1207E-4,0
STARLINK-37519,2026-119C,2026-06-09T14:00:04.000032,15.80833840,.0001426,97.2841,185.9927,101.9661,108.7813,0,U,69298,999,266,-.1259839E-5,-.383E-5,0
STARLINK-37455,2026-119D,2026-06-09T14:00:04.000032,15.79950759,.00013935,97.2845,185.9889,87.0558,113.7297,0,U,69299,999,266,.9985621E-5,.1699E-4,0
STARLINK-37456,2026-119E,2026-06-09T14:00:04.000032,15.80842562,.00010977,97.2839,185.9945,123.6709,91.5682,0,U,69300,999,266,-.19768792E-4,-.3931E-4,0
STARLINK-37630,2026-119F,2026-06-09T14:00:04.000032,15.81171048,.00012052,97.2842,185.9944,116.9680,100.8069,0,U,69301,999,282,-.52784337E-2,-.925076E-2,0
STARLINK-37804,2026-119G,2026-06-09T14:00:04.000032,15.81014221,.00012203,97.2840,185.9955,129.5696,89.9310,0,U,69302,999,282,-.25418513E-2,-.466155E-2,0
STARLINK-37730,2026-119H,2026-06-09T14:00:04.000032,15.80849169,.00009535,97.2836,186.0003,120.6673,107.3034,0,U,69303,999,282,-.13111346E-3,-.25221E-3,0
STARLINK-37731,2026-119J,2026-06-09T14:00:04.000032,15.80845425,.00012711,97.2837,185.9989,98.2859,130.4425,0,U,69304,999,282,-.1410709E-3,-.27116E-3,0
STARLINK-37734,2026-119K,2026-06-09T14:00:04.000032,15.80844768,.00009153,97.2838,186.0025,100.6386,133.2997,0,U,69305,999,282,-.96000306E-4,-.18515E-3,0
STARLINK-37701,2026-119L,2026-06-09T14:00:04.000032,15.80845386,.00008547,97.2837,186.0027,80.8100,154.6615,0,U,69306,999,282,-.12293117E-3,-.23656E-3,0
STARLINK-37732,2026-119M,2026-06-09T14:00:04.000032,15.80845575,.00013356,97.2838,186.0046,93.7054,144.1444,0,U,69307,999,282,-.94677198E-4,-.18264E-3,0
STARLINK-37689,2026-119N,2026-06-09T14:00:04.000032,15.80844609,.00009879,97.2838,186.0051,94.3422,150.2381,0,U,69308,999,282,-.10602151E-3,-.20428E-3,0
STARLINK-37619,2026-119P,2026-06-09T14:00:04.000032,15.80839950,.00015884,97.2838,186.0078,106.6898,140.8832,0,U,69309,999,282,-.377394E-4,-.7373E-4,0
STARLINK-37794,2026-119Q,2026-06-09T14:00:04.000032,15.80847113,.00008192,97.2834,186.0139,91.6669,168.5897,0,U,69310,999,282,-.10448772E-3,-.20137E-3,0
STARLINK-37795,2026-119R,2026-06-09T14:00:04.000032,15.80837073,.0001219,97.2836,186.0133,98.8798,163.4662,0,U,69311,999,282,-.73948552E-4,-.14297E-3,0
STARLINK-37790,2026-119S,2026-06-09T14:00:04.000032,15.80848625,.00012273,97.2836,186.0168,92.7269,174.9570,0,U,69312,999,282,-.14741733E-3,-.28329E-3,0
STARLINK-37676,2026-119T,2026-06-09T14:00:04.000032,15.80852808,.00007963,97.2838,186.0215,97.8199,181.3774,0,U,69313,999,282,-.17473445E-3,-.33538E-3,0
STARLINK-37617,2026-119U,2026-06-09T14:00:04.000032,15.80826053,.00013952,97.2837,186.0238,102.2834,181.8806,0,U,69314,999,282,.33300308E-4,.6244E-4,0
STARLINK-37627,2026-119V,2026-06-09T14:00:04.000032,15.80833138,.00007709,97.2837,186.0245,98.7972,187.1483,0,U,69315,999,282,.85597682E-4,.16297E-3,0
STARLINK-37738,2026-119W,2026-06-09T14:00:04.000032,15.80841887,.00009932,97.2833,186.0191,104.1325,169.0598,0,U,69316,999,282,-.8547775E-5,-.1781E-4,0
STARLINK-37799,2026-119X,2026-06-09T14:00:04.000032,15.80831754,.00013474,97.2835,186.0229,114.0652,167.8544,0,U,69317,999,277,.25666672E-4,.4781E-4,0
STARLINK-37802,2026-119Y,2026-06-09T14:00:04.000032,15.80823937,.00011288,97.2833,186.0283,112.5922,180.8303,0,U,69318,999,282,.10130787E-3,.19313E-3,0
