KUIPER-00606            
1 69289U 26118Y   26160.52215603  .00024258  00000+0  65488-3 0  9995
2 69289  51.8696  90.3112 0004691 125.2307 234.9120 15.37624796  2808
KUIPER-00607            
1 69290U 26118Z   26160.52435321  .00027517  00000+0  74847-3 0  9998
2 69290  51.8681  90.3266 0006349 131.3967 228.7566 15.37312854  2800
KUIPER-00608            
1 69291U 26118AA  26160.53135882 -.00006009  00000+0 -15889-3 0  9995
2 69291  51.8605  90.3717 0009510 148.3941 211.7618 15.35777998  2803
KUIPER-00610            
1 69292U 26118AB  26160.38857072  .00020308  00000+0  54079-3 0  9991
2 69292  51.8717  90.9125 0002946 109.1000 251.0306 15.38166630  2780
KUIPER-00613            
1 69293U 26118AC  26160.53423428  .00009545  00000+0  28469-3 0  9997
2 69293  51.8629  90.3908 0010368 158.7039 201.4380 15.35286086  2804
KUIPER-00618            
1 69294U 26118AD  26160.51588455  .00024084  00000+0  63378-3 0  9991
2 69294  51.8716  90.2654 0001923  73.1056 287.0142 15.38425877  2807
KUIPER-00620            
1 69295U 26118AE  26160.51792703  .00031574  00000+0  83148-3 0  9994
2 69295  51.8712  90.2807 0003098  97.2980 262.8359 15.38253086  2804
STARLINK-37501          
1 69296U 26119A   26160.58337963 -.00020708  00000+0 -11192-3 0  9995
2 69296  97.2844 185.9855 0001184  96.4646  97.4096 15.79958641  2662
STARLINK-37496          
1 69297U 26119B   26160.58337963  .00001207  00000+0  73125-5 0  9993
2 69297  97.2846 185.9844 0000964 102.0812  89.0848 15.79956097  2662
STARLINK-37519          
1 69298U 26119C   26160.58337963 -.00000383  00000+0 -12598-5 0  9997
2 69298  97.2841 185.9927 0001426 101.9661 108.7813 15.80833840  2667
STARLINK-37455          
1 69299U 26119D   26160.58337963  .00001699  00000+0  99856-5 0  9999
2 69299  97.2845 185.9889 0001393  87.0558 113.7297 15.79950759  2660
STARLINK-37456          
1 69300U 26119E   26160.58337963 -.00003931  00000+0 -19769-4 0  9999
2 69300  97.2839 185.9945 0001097 123.6709  91.5682 15.80842562  2660
STARLINK-37630          
1 69301U 26119F   26160.58337963 -.00925076  00000+0 -52784-2 0  9995
2 69301  97.2842 185.9944 0001205 116.9680 100.8069 15.81171048  2824
STARLINK-37804          
1 69302U 26119G   26160.58337963 -.00466155  00000+0 -25419-2 0  9999
2 69302  97.2840 185.9955 0001220 129.5696  89.9310 15.81014221  2824
STARLINK-37730          
1 69303U 26119H   26160.58337963 -.00025221  00000+0 -13111-3 0  9992
2 69303  97.2836 186.0003 0000953 120.6673 107.3034 15.80849169  2829
STARLINK-37731          
1 69304U 26119J   26160.58337963 -.00027116  00000+0 -14107-3 0  9994
2 69304  97.2837 185.9989 0001271  98.2859 130.4425 15.80845425  2824
STARLINK-37734          
1 69305U 26119K   26160.58337963 -.00018515  00000+0 -96000-4 0  9991
2 69305  97.2838 186.0025 0000915 100.6386 133.2997 15.80844768  2820
STARLINK-37701          
1 69306U 26119L   26160.58337963 -.00023656  00000+0 -12293-3 0  9995
2 69306  97.2837 186.0027 0000854  80.8100 154.6615 15.80845386  2828
STARLINK-37732          
1 69307U 26119M   26160.58337963 -.00018264  00000+0 -94677-4 0  9992
2 69307  97.2838 186.0046 0001335  93.7054 144.1444 15.80845575  2821
STARLINK-37689          
1 69308U 26119N   26160.58337963 -.00020428  00000+0 -10602-3 0  9993
2 69308  97.2838 186.0051 0000987  94.3422 150.2381 15.80844609  2821
STARLINK-37619          
1 69309U 26119P   26160.58337963 -.00007373  00000+0 -37739-4 0  9999
2 69309  97.2838 186.0078 0001588 106.6898 140.8832 15.80839950  2822
STARLINK-37794          
1 69310U 26119Q   26160.58337963 -.00020137  00000+0 -10449-3 0  9992
2 69310  97.2834 186.0139 0000819  91.6669 168.5897 15.80847113  2821
STARLINK-37795          
1 69311U 26119R   26160.58337963 -.00014297  00000+0 -73949-4 0  9998
2 69311  97.2836 186.0133 0001219  98.8798 163.4662 15.80837073  2823
STARLINK-37790          
1 69312U 26119S   26160.58337963 -.00028329  00000+0 -14742-3 0  9995
2 69312  97.2836 186.0168 0001227  92.7269 174.9570 15.80848625  2827
STARLINK-37676          
1 69313U 26119T   26160.58337963 -.00033538  00000+0 -17473-3 0  9998
2 69313  97.2838 186.0215 0000796  97.8199 181.3774 15.80852808  2827
STARLINK-37617          
1 69314U 26119U   26160.58337963  .00006244  00000+0  33300-4 0  9999
2 69314  97.2837 186.0238 0001395 102.2834 181.8806 15.80826053  2829
STARLINK-37627          
1 69315U 26119V   26160.58337963  .00016297  00000+0  85598-4 0  9995
2 69315  97.2837 186.0245 0000770  98.7972 187.1483 15.80833138  2828
STARLINK-37738          
1 69316U 26119W   26160.58337963 -.00001781  00000+0 -85478-5 0  9998
2 69316  97.2833 186.0191 0000993 104.1325 169.0598 15.80841887  2822
STARLINK-37799          
1 69317U 26119X   26160.58337963  .00004781  00000+0  25667-4 0  9993
2 69317  97.2835 186.0229 0001347 114.0652 167.8544 15.80831754  2777
STARLINK-37802          
1 69318U 26119Y   26160.58337963  .00019313  00000+0  10131-3 0  9990
2 69318  97.2833 186.0283 0001128 112.5922 180.8303 15.80823937  2824
